*******************************************************************************
Ephemeris / WWW_USER Tue Mar 27 20:10:10 2018 Pasadena, USA      / Horizons    
*******************************************************************************
Target body name: Metis (516)                     {source: jup310}
Center body name: Solar System Barycenter (0)     {source: DE431mx}
Center-site name: BODY CENTER
*******************************************************************************
Start time      : A.D. 2000-Jan-01 00:00:00.0000 TDB
Stop  time      : A.D. 2010-Jan-01 00:00:00.0000 TDB
Step-size       : 7200 minutes
*******************************************************************************
Center geodetic : 0.00000000,0.00000000,0.0000000 {E-lon(deg),Lat(deg),Alt(km)}
Center cylindric: 0.00000000,0.00000000,0.0000000 {E-lon(deg),Dxy(km),Dz(km)}
Center radii    : (undefined)                                                  
Output units    : AU-D                                                         
Output type     : GEOMETRIC cartesian states
Output format   : 2 (position and velocity)
Reference frame : ICRF/J2000.0                                                 
Coordinate systm: Ecliptic and Mean Equinox of Reference Epoch                 
*******************************************************************************
JDTDB
   X     Y     Z
   VX    VY    VZ
*******************************************************************************
$$SOE
2453854.500000000 = A.D. 2006-Apr-29 00:00:00.0000 TDB 
  -3.929907423811502E+00 -3.726438606298738E+00  1.034311706916457E-01
  -9.245767111379847E-03  6.125383153776483E-03  9.810496541033411E-05
2453859.500000000 = A.D. 2006-May-04 00:00:00.0000 TDB 
  -3.904179974184456E+00 -3.752094937606677E+00  1.029612262654337E-01
  -6.137166492901085E-03  9.231777676641082E-03  2.507553916400010E-04
2453864.500000000 = A.D. 2006-May-09 00:00:00.0000 TDB 
  -3.878307007139249E+00 -3.777606909508902E+00  1.024848764689098E-01
  -2.390288815388545E-03  1.153285042480125E-02  3.847765856000504E-04
2453869.500000000 = A.D. 2006-May-14 00:00:00.0000 TDB 
  -3.852296739220239E+00 -3.802963880457042E+00  1.020023842573525E-01
   1.798523865845217E-03  1.289524149563586E-02  4.926177078086302E-04
2453874.500000000 = A.D. 2006-May-19 00:00:00.0000 TDB 
  -3.826158064451060E+00 -3.828153277287391E+00  1.015140964486096E-01
   6.191450340035848E-03  1.322734979947627E-02  5.673931468403058E-04
2453879.500000000 = A.D. 2006-May-24 00:00:00.0000 TDB 
  -3.799889365450698E+00 -3.853162500413161E+00  1.010205023497515E-01
   1.052751886541245E-02  1.250836130061211E-02  6.041813104623487E-04
2453884.500000000 = A.D. 2006-May-29 00:00:00.0000 TDB 
  -3.773487259888977E+00 -3.877977517129334E+00  1.005221283295322E-01
   1.455246129936498E-02  1.079347972162103E-02  6.007545804254240E-04
2453889.500000000 = A.D. 2006-Jun-03 00:00:00.0000 TDB 
  -3.746954310390376E+00 -3.902586159797801E+00  1.000193752180673E-01
   1.804392048340204E-02  8.189955815381882E-03  5.572258941394161E-04
2453894.500000000 = A.D. 2006-Jun-08 00:00:00.0000 TDB 
  -3.720282737426822E+00 -3.926979492166555E+00  9.951266285539302E-02
   2.081792286556767E-02  4.848489752126852E-03  4.759299609380921E-04
2453899.500000000 = A.D. 2006-Jun-13 00:00:00.0000 TDB 
  -3.693460508580295E+00 -3.951148057596812E+00  9.900245858258985E-02
   2.271994002791995E-02  9.516655181629365E-04  3.610056879539442E-04
2453904.500000000 = A.D. 2006-Jun-18 00:00:00.0000 TDB 
  -3.666483086615482E+00 -3.975086095577717E+00  9.848901070006735E-02
   2.363355312669680E-02 -3.285894650901837E-03  2.185290861131837E-04
2453909.500000000 = A.D. 2006-Jun-23 00:00:00.0000 TDB 
  -3.639340813133702E+00 -3.998790290506136E+00  9.797256676447900E-02
   2.349680119314067E-02 -7.611058455314553E-03  5.699459942097637E-05
2453914.500000000 = A.D. 2006-Jun-28 00:00:00.0000 TDB 
  -3.612018162306101E+00 -4.022259713357450E+00  9.745337078314094E-02
   2.232436552890544E-02 -1.176043682538117E-02 -1.134742714920427E-04
2453919.500000000 = A.D. 2006-Jul-03 00:00:00.0000 TDB 
  -3.584506067818144E+00 -4.045496266575642E+00  9.693147167698994E-02
   2.020017100860699E-02 -1.549568373913000E-02 -2.826313558231914E-04
2453924.500000000 = A.D. 2006-Jul-08 00:00:00.0000 TDB 
  -3.556800358870035E+00 -4.068503898817510E+00  9.640681641173707E-02
   1.724904208146002E-02 -1.861662639106816E-02 -4.410723772242845E-04
2453929.500000000 = A.D. 2006-Jul-13 00:00:00.0000 TDB 
  -3.528889976732318E+00 -4.091290287375899E+00  9.587931503680550E-02
   1.363147984825190E-02 -2.094843335770596E-02 -5.800042029438836E-04
2453934.500000000 = A.D. 2006-Jul-18 00:00:00.0000 TDB 
  -3.500767600766317E+00 -4.113862883164136E+00  9.534880532114383E-02
   9.545373500894771E-03 -2.234615217873012E-02 -6.913974826144000E-04
2453939.500000000 = A.D. 2006-Jul-23 00:00:00.0000 TDB 
  -3.472436767205139E+00 -4.136231848520493E+00  9.481490484285127E-02
   5.229775813341869E-03 -2.271967611570467E-02 -7.688208314096814E-04
2453944.500000000 = A.D. 2006-Jul-28 00:00:00.0000 TDB 
  -3.443895254590728E+00 -4.158409135389359E+00  9.427723213729998E-02
   9.462068474823738E-04 -2.204225429464956E-02 -8.079517107532107E-04
2453949.500000000 = A.D. 2006-Aug-02 00:00:00.0000 TDB 
  -3.415142076725145E+00 -4.180404337383135E+00  9.373544137890368E-02
  -3.054213461372653E-03 -2.036104571893163E-02 -8.073007275186061E-04
2453954.500000000 = A.D. 2006-Aug-07 00:00:00.0000 TDB 
  -3.386187171978514E+00 -4.202227115346617E+00  9.318903002139875E-02
  -6.549713209990139E-03 -1.778146844272561E-02 -7.678345598214180E-04
2453959.500000000 = A.D. 2006-Aug-12 00:00:00.0000 TDB 
  -3.357039291700787E+00 -4.223885325708791E+00  9.263757954591664E-02
  -9.352386182601740E-03 -1.444173082594397E-02 -6.919777059708391E-04
2453964.500000000 = A.D. 2006-Aug-17 00:00:00.0000 TDB 
  -3.327703670564270E+00 -4.245385814525960E+00  9.208074276963688E-02
  -1.129724276734551E-02 -1.051515330192012E-02 -5.835150869093701E-04
2453969.500000000 = A.D. 2006-Aug-22 00:00:00.0000 TDB 
  -3.298193250832909E+00 -4.266732351447677E+00  9.151816036771870E-02
  -1.225678537012400E-02 -6.221552723320209E-03 -4.482090833382077E-04
2453974.500000000 = A.D. 2006-Aug-27 00:00:00.0000 TDB 
  -3.268526119666594E+00 -4.287926036385831E+00  9.094953906005711E-02
  -1.216999037452425E-02 -1.819380363068228E-03 -2.939782999457803E-04
2453979.500000000 = A.D. 2006-Sep-01 00:00:00.0000 TDB 
  -3.238711097590683E+00 -4.308966836976816E+00  9.037475429749722E-02
  -1.104807816272745E-02  2.434902680673162E-03 -1.296821811367579E-04
2453984.500000000 = A.D. 2006-Sep-06 00:00:00.0000 TDB 
  -3.208758671302627E+00 -4.329849446712289E+00  8.979383645934567E-02
  -8.966407835417096E-03  6.307282078680894E-03  3.564195158442760E-05
2453989.500000000 = A.D. 2006-Sep-11 00:00:00.0000 TDB 
  -3.178685961772685E+00 -4.350567714343181E+00  8.920679551441457E-02
  -6.040834481973211E-03  9.588592088448507E-03  1.930751886320547E-04
2453994.500000000 = A.D. 2006-Sep-16 00:00:00.0000 TDB 
  -3.148500151827840E+00 -4.371113934804593E+00  8.861383435926476E-02
  -2.424105120725974E-03  1.210007296243497E-02  3.340118980493749E-04
2453999.500000000 = A.D. 2006-Sep-21 00:00:00.0000 TDB 
  -3.118205736952249E+00 -4.391476930346117E+00  8.801530238275808E-02
   1.687122023668886E-03  1.369036169591331E-02  4.499418134010909E-04
2454004.500000000 = A.D. 2006-Sep-26 00:00:00.0000 TDB 
  -3.087812574076332E+00 -4.411644131347928E+00  8.741152245396099E-02
   6.053021291724761E-03  1.425736841290879E-02  5.332790422093765E-04
2454009.500000000 = A.D. 2006-Oct-01 00:00:00.0000 TDB 
  -3.057324707555932E+00 -4.431601906679258E+00  8.680294649170502E-02
   1.040996038159690E-02  1.377461562427008E-02  5.787385260108761E-04
2454014.500000000 = A.D. 2006-Oct-06 00:00:00.0000 TDB 
  -3.026737059800864E+00 -4.451338599004164E+00  8.619006020393030E-02
   1.451121005706424E-02  1.228828041655359E-02  5.839000546606397E-04
2454019.500000000 = A.D. 2006-Oct-11 00:00:00.0000 TDB 
  -2.996048061446218E+00 -4.470841800162386E+00  8.557330249618392E-02
   1.813743540214343E-02  9.891186951509917E-03  5.485750848805016E-04
2454024.500000000 = A.D. 2006-Oct-16 00:00:00.0000 TDB 
  -2.965257937676358E+00 -4.490101048466918E+00  8.495305126868662E-02
   2.109152730780229E-02  6.708844337175909E-03  4.743165148572519E-04
2454029.500000000 = A.D. 2006-Oct-21 00:00:00.0000 TDB 
  -2.934354787375105E+00 -4.509108943317490E+00  8.432972965995197E-02
   2.320097533334810E-02  2.916421391132018E-03  3.650469362762351E-04
2454034.500000000 = A.D. 2006-Oct-26 00:00:00.0000 TDB 
  -2.903328028852809E+00 -4.527857288786077E+00  8.370376367083386E-02
   2.433222637987213E-02 -1.264689812022680E-03  2.271368891274379E-04
2454039.500000000 = A.D. 2006-Oct-31 00:00:00.0000 TDB 
  -2.872172782241992E+00 -4.546342014087859E+00  8.307538979510803E-02
   2.442006229324301E-02 -5.582956867490631E-03  6.912761265239801E-05
2454044.500000000 = A.D. 2006-Nov-05 00:00:00.0000 TDB 
  -2.840875788003598E+00 -4.564562486805855E+00  8.244484580170838E-02
   2.347180459274487E-02 -9.779477561658659E-03 -9.911650995541639E-05
2454049.500000000 = A.D. 2006-Nov-10 00:00:00.0000 TDB 
  -2.809423947150551E+00 -4.582520506921473E+00  8.181227766599732E-02
   2.155503871438346E-02 -1.362007192152781E-02 -2.678820038561343E-04
2454054.500000000 = A.D. 2006-Nov-15 00:00:00.0000 TDB 
  -2.777812762976521E+00 -4.600219630659067E+00  8.117765326090287E-02
   1.877679027493236E-02 -1.689773651269286E-02 -4.280859081770682E-04
2454059.500000000 = A.D. 2006-Nov-20 00:00:00.0000 TDB 
  -2.746036733783788E+00 -4.617665662426142E+00  8.054089705440191E-02
   1.528113437294621E-02 -1.942377955077976E-02 -5.709846348850281E-04
